start=new Date('2021-12-05T00:00:00.000Z').valueOf();
sats=[{"PERIOD":"95.593","OBJECT_ID":"2021-044J","OBJECT_TYPE":"PAYLOAD","MEAN_ANOMALY":"302.9983","NORAD_CAT_ID":"48646","OBJECT_NAME":"STARLINK-2732","PERIAPSIS":"545.616","BSTAR":"-0.00000860150000","MEAN_ELEMENT_THEORY":"SGP4","RCS_SIZE":"LARGE","TIME_SYSTEM":"UTC","DECAY_DATE":null,"EPHEMERIS_TYPE":"0","EPOCH":"2021-12-04T19:12:34.892640","ECCENTRICITY":"0.00023570","MEAN_MOTION_DDOT":"0.0000000000000","TLE_LINE1":"1 48646U 21044J   21338.80040385 -.00000410  00000-0 -86015-5 0  9996","ARG_OF_PERICENTER":"57.1233","INCLINATION":"53.0549","REF_FRAME":"TEME","CENTER_NAME":"EARTH","CLASSIFICATION_TYPE":"U","TLE_LINE2":"2 48646  53.0549 266.2636 0002357  57.1233 302.9983 15.06388612 29202","REV_AT_EPOCH":"2920","ELEMENT_SET_NO":"999","MEAN_MOTION_DOT":"-0.00000410","SITE":"AFETR","GP_ID":"191104907","LAUNCH_DATE":"2021-05-26","SEMIMAJOR_AXIS":"6925.383","FILE":"3232651","MEAN_MOTION":"15.06388612","APOAPSIS":"548.881","COUNTRY_CODE":"US","RA_OF_ASC_NODE":"266.2636"},{"MEAN_ANOMALY":"301.6013","OBJECT_NAME":"STARLINK-2691","NORAD_CAT_ID":"48647","OBJECT_ID":"2021-044K","PERIOD":"95.593","OBJECT_TYPE":"PAYLOAD","TIME_SYSTEM":"UTC","RCS_SIZE":"LARGE","MEAN_ELEMENT_THEORY":"SGP4","EPOCH":"2021-12-04T19:07:16.797216","DECAY_DATE":null,"EPHEMERIS_TYPE":"0","PERIAPSIS":"545.806","BSTAR":"-0.00003579000000","REF_FRAME":"TEME","CENTER_NAME":"EARTH","INCLINATION":"53.0557","TLE_LINE2":"2 48647  53.0557 266.2922 0002085  58.5180 301.6013 15.06388176 29209","REV_AT_EPOCH":"2920","CLASSIFICATION_TYPE":"U","ECCENTRICITY":"0.00020850","ARG_OF_PERICENTER":"58.5180","MEAN_MOTION_DDOT":"0.0000000000000","TLE_LINE1":"1 48647U 21044K   21338.79672219 -.00000815  00000-0 -35790-4 0  9994","COUNTRY_CODE":"US","RA_OF_ASC_NODE":"266.2922","APOAPSIS":"548.694","MEAN_MOTION_DOT":"-0.00000815","ELEMENT_SET_NO":"999","FILE":"3232651","MEAN_MOTION":"15.06388176","SEMIMAJOR_AXIS":"6925.385","GP_ID":"191105374","LAUNCH_DATE":"2021-05-26","SITE":"AFETR"},{"APOAPSIS":"548.774","COUNTRY_CODE":"US","RA_OF_ASC_NODE":"266.2925","ELEMENT_SET_NO":"999","MEAN_MOTION_DOT":"-0.00000420","GP_ID":"191105530","SITE":"AFETR","LAUNCH_DATE":"2021-05-26","SEMIMAJOR_AXIS":"6925.382","FILE":"3232651","MEAN_MOTION":"15.06388932","INCLINATION":"53.0557","REF_FRAME":"TEME","CENTER_NAME":"EARTH","CLASSIFICATION_TYPE":"U","TLE_LINE2":"2 48648  53.0557 266.2925 0002204  59.7249 300.3958 15.06388932 29209","REV_AT_EPOCH":"2920","ECCENTRICITY":"0.00022040","MEAN_MOTION_DDOT":"0.0000000000000","TLE_LINE1":"1 48648U 21044L   21338.79577554 -.00000420  00000-0 -92792-5 0  9999","ARG_OF_PERICENTER":"59.7249","MEAN_ELEMENT_THEORY":"SGP4","TIME_SYSTEM":"UTC","RCS_SIZE":"LARGE","DECAY_DATE":null,"EPHEMERIS_TYPE":"0","EPOCH":"2021-12-04T19:05:55.006656","PERIAPSIS":"545.721","BSTAR":"-0.00000927920000","MEAN_ANOMALY":"300.3958","NORAD_CAT_ID":"48648","OBJECT_NAME":"STARLINK-2521","OBJECT_ID":"2021-044L","PERIOD":"95.593","OBJECT_TYPE":"PAYLOAD"},{"INCLINATION":"53.0527","REF_FRAME":"TEME","CENTER_NAME":"EARTH","CLASSIFICATION_TYPE":"U","REV_AT_EPOCH":"3003","TLE_LINE2":"2 48649  53.0527 266.3046 0002138  64.8880 295.2331 15.06367020 30031","ECCENTRICITY":"0.00021380","MEAN_MOTION_DDOT":"0.0000000000000","TLE_LINE1":"1 48649U 21044M   21338.79305570 -.00002738  00000-0 -16509-3 0  9991","ARG_OF_PERICENTER":"64.8880","APOAPSIS":"548.795","RA_OF_ASC_NODE":"266.3046","COUNTRY_CODE":"US","ELEMENT_SET_NO":"999","MEAN_MOTION_DOT":"-0.00002738","GP_ID":"191077129","LAUNCH_DATE":"2021-05-26","SITE":"AFETR","FILE":"3232450","MEAN_MOTION":"15.06367020","SEMIMAJOR_AXIS":"6925.450","MEAN_ANOMALY":"295.2331","NORAD_CAT_ID":"48649","OBJECT_NAME":"STARLINK-2673","PERIOD":"95.594","OBJECT_ID":"2021-044M","OBJECT_TYPE":"PAYLOAD","MEAN_ELEMENT_THEORY":"SGP4","TIME_SYSTEM":"UTC","RCS_SIZE":"LARGE","DECAY_DATE":null,"EPHEMERIS_TYPE":"0","EPOCH":"2021-12-04T19:02:00.012480","PERIAPSIS":"545.834","BSTAR":"-0.00016509000000"},{"ELEMENT_SET_NO":"999","MEAN_MOTION_DOT":"-0.00000926","LAUNCH_DATE":"2021-05-26","GP_ID":"191104595","SITE":"AFETR","SEMIMAJOR_AXIS":"6925.369","FILE":"3232651","MEAN_MOTION":"15.06393337","APOAPSIS":"548.857","COUNTRY_CODE":"US","RA_OF_ASC_NODE":"267.5132","ECCENTRICITY":"0.00023440","MEAN_MOTION_DDOT":"0.0000000000000","TLE_LINE1":"1 48650U 21044N   21338.52395847 -.00000926  00000-0 -43265-4 0  9997","ARG_OF_PERICENTER":"61.8206","INCLINATION":"53.0554","REF_FRAME":"TEME","CENTER_NAME":"EARTH","CLASSIFICATION_TYPE":"U","REV_AT_EPOCH":"2915","TLE_LINE2":"2 48650  53.0554 267.5132 0002344  61.8206 298.3020 15.06393337 29150","PERIAPSIS":"545.611","BSTAR":"-0.00004326500000","MEAN_ELEMENT_THEORY":"SGP4","TIME_SYSTEM":"UTC","RCS_SIZE":"LARGE","DECAY_DATE":null,"EPHEMERIS_TYPE":"0","EPOCH":"2021-12-04T12:34:30.011808","OBJECT_ID":"2021-044N","PERIOD":"95.593","OBJECT_TYPE":"PAYLOAD","MEAN_ANOMALY":"298.3020","NORAD_CAT_ID":"48650","OBJECT_NAME":"STARLINK-2672"},{"ARG_OF_PERICENTER":"63.4476","MEAN_MOTION_DDOT":"0.0000000000000","TLE_LINE1":"1 48651U 21044P   21338.52027307  .00000811  00000-0  73383-4 0  9996","ECCENTRICITY":"0.00019070","TLE_LINE2":"2 48651  53.0547 267.5209 0001907  63.4476 296.6709 15.06394723 29154","REV_AT_EPOCH":"2915","CLASSIFICATION_TYPE":"U","REF_FRAME":"TEME","CENTER_NAME":"EARTH","INCLINATION":"53.0547","FILE":"3232651","MEAN_MOTION":"15.06394723","SEMIMAJOR_AXIS":"6925.365","SITE":"AFETR","GP_ID":"191105063","LAUNCH_DATE":"2021-05-26","MEAN_MOTION_DOT":"0.00000811","ELEMENT_SET_NO":"999","COUNTRY_CODE":"US","RA_OF_ASC_NODE":"267.5209","APOAPSIS":"548.550","OBJECT_ID":"2021-044P","PERIOD":"95.592","OBJECT_TYPE":"PAYLOAD","OBJECT_NAME":"STARLINK-2731","NORAD_CAT_ID":"48651","MEAN_ANOMALY":"296.6709","BSTAR":"0.00007338300000","PERIAPSIS":"545.909","EPOCH":"2021-12-04T12:29:11.593248","DECAY_DATE":null,"EPHEMERIS_TYPE":"0","TIME_SYSTEM":"UTC","RCS_SIZE":"LARGE","MEAN_ELEMENT_THEORY":"SGP4"},{"TLE_LINE2":"2 48652  53.0554 266.3502 0002684  11.9746 348.1307 15.06391507 29195","REV_AT_EPOCH":"2919","CLASSIFICATION_TYPE":"U","REF_FRAME":"TEME","CENTER_NAME":"EARTH","INCLINATION":"53.0554","ARG_OF_PERICENTER":"11.9746","MEAN_MOTION_DDOT":"0.0000000000000","TLE_LINE1":"1 48652U 21044Q   21338.78196811  .00002246  00000-0  16971-3 0  9995","ECCENTRICITY":"0.00026840","COUNTRY_CODE":"US","RA_OF_ASC_NODE":"266.3502","APOAPSIS":"549.098","FILE":"3232651","SEMIMAJOR_AXIS":"6925.375","MEAN_MOTION":"15.06391507","SITE":"AFETR","GP_ID":"191105219","LAUNCH_DATE":"2021-05-26","MEAN_MOTION_DOT":"0.00002246","ELEMENT_SET_NO":"999","OBJECT_NAME":"STARLINK-2727","NORAD_CAT_ID":"48652","MEAN_ANOMALY":"348.1307","OBJECT_ID":"2021-044Q","PERIOD":"95.593","OBJECT_TYPE":"PAYLOAD","EPOCH":"2021-12-04T18:46:02.044704","DECAY_DATE":null,"EPHEMERIS_TYPE":"0","RCS_SIZE":"LARGE","TIME_SYSTEM":"UTC","MEAN_ELEMENT_THEORY":"SGP4","BSTAR":"0.00016971000000","PERIAPSIS":"545.381"},{"OBJECT_ID":"2021-044R","PERIOD":"95.593","OBJECT_TYPE":"PAYLOAD","NORAD_CAT_ID":"48653","OBJECT_NAME":"STARLINK-2720","MEAN_ANOMALY":"301.8128","BSTAR":"-0.00004614500000","PERIAPSIS":"545.735","DECAY_DATE":null,"EPHEMERIS_TYPE":"0","EPOCH":"2021-12-04T12:18:34.898688","MEAN_ELEMENT_THEORY":"SGP4","RCS_SIZE":"LARGE","TIME_SYSTEM":"UTC","MEAN_MOTION_DDOT":"0.0000000000000","TLE_LINE1":"1 48653U 21044R   21338.51290392 -.00000969  00000-0 -46145-4 0  9995","ARG_OF_PERICENTER":"58.3074","ECCENTRICITY":"0.00021950","CLASSIFICATION_TYPE":"U","REV_AT_EPOCH":"2915","TLE_LINE2":"2 48653  53.0559 267.5611 0002195  58.3074 301.8128 15.06386573 29151","INCLINATION":"53.0559","REF_FRAME":"TEME","CENTER_NAME":"EARTH","GP_ID":"191104440","LAUNCH_DATE":"2021-05-26","SITE":"AFETR","FILE":"3232651","SEMIMAJOR_AXIS":"6925.390","MEAN_MOTION":"15.06386573","ELEMENT_SET_NO":"999","MEAN_MOTION_DOT":"-0.00000969","APOAPSIS":"548.775","COUNTRY_CODE":"US","RA_OF_ASC_NODE":"267.5611"},{"ELEMENT_SET_NO":"999","MEAN_MOTION_DOT":"0.00000281","GP_ID":"191104908","LAUNCH_DATE":"2021-05-26","SITE":"AFETR","FILE":"3232651","SEMIMAJOR_AXIS":"6925.357","MEAN_MOTION":"15.06397240","APOAPSIS":"548.678","RA_OF_ASC_NODE":"265.8018","COUNTRY_CODE":"US","ECCENTRICITY":"0.00021020","MEAN_MOTION_DDOT":"0.0000000000000","TLE_LINE1":"1 48654U 21044S   21338.90729578  .00000281  00000-0  37808-4 0  9993","ARG_OF_PERICENTER":"58.3564","INCLINATION":"53.0545","REF_FRAME":"TEME","CENTER_NAME":"EARTH","CLASSIFICATION_TYPE":"U","TLE_LINE2":"2 48654  53.0545 265.8018 0002102  58.3564 301.7630 15.06397240 29218","REV_AT_EPOCH":"2921","PERIAPSIS":"545.766","BSTAR":"0.00003780800000","MEAN_ELEMENT_THEORY":"SGP4","RCS_SIZE":"LARGE","TIME_SYSTEM":"UTC","DECAY_DATE":null,"EPHEMERIS_TYPE":"0","EPOCH":"2021-12-04T21:46:30.355392","OBJECT_ID":"2021-044S","PERIOD":"95.592","OBJECT_TYPE":"PAYLOAD","MEAN_ANOMALY":"301.7630","NORAD_CAT_ID":"48654","OBJECT_NAME":"STARLINK-2651"},{"RCS_SIZE":"LARGE","TIME_SYSTEM":"UTC","MEAN_ELEMENT_THEORY":"SGP4","EPOCH":"2021-12-04T12:07:57.781632","DECAY_DATE":null,"EPHEMERIS_TYPE":"0","PERIAPSIS":"545.868","BSTAR":"-0.00005720500000","MEAN_ANOMALY":"303.2483","OBJECT_NAME":"STARLINK-2657","NORAD_CAT_ID":"48655","OBJECT_ID":"2021-044T","PERIOD":"95.593","OBJECT_TYPE":"PAYLOAD","COUNTRY_CODE":"US","RA_OF_ASC_NODE":"267.5989","APOAPSIS":"548.615","MEAN_MOTION_DOT":"-0.00001133","ELEMENT_SET_NO":"999","FILE":"3232651","SEMIMAJOR_AXIS":"6925.376","MEAN_MOTION":"15.06390884","SITE":"AFETR","GP_ID":"191105375","LAUNCH_DATE":"2021-05-26","REF_FRAME":"TEME","CENTER_NAME":"EARTH","INCLINATION":"53.0559","TLE_LINE2":"2 48655  53.0559 267.5989 0001984  56.8696 303.2483 15.06390884 29159","REV_AT_EPOCH":"2915","CLASSIFICATION_TYPE":"U","ECCENTRICITY":"0.00019840","ARG_OF_PERICENTER":"56.8696","MEAN_MOTION_DDOT":"0.0000000000000","TLE_LINE1":"1 48655U 21044T   21338.50552988 -.00001133  00000-0 -57205-4 0  9991"}];
